{
    "links": {
        "self": "http://www.neowsapp.com/rest/v1/neo/3392304?api_key=iIulBulltgU6a56xZRHN4H3l9WmuAYTsLGpBGhQ2"
    },
    "id": "3392304",
    "neo_reference_id": "3392304",
    "name": "(2007 VF3)",
    "designation": "2007 VF3",
    "nasa_jpl_url": "http://ssd.jpl.nasa.gov/sbdb.cgi?sstr=3392304",
    "absolute_magnitude_h": 24.8,
    "estimated_diameter": {
        "kilometers": {
            "estimated_diameter_min": 0.0291443905,
            "estimated_diameter_max": 0.0651688382
        },
        "meters": {
            "estimated_diameter_min": 29.1443904535,
            "estimated_diameter_max": 65.1688382168
        },
        "miles": {
            "estimated_diameter_min": 0.018109479,
            "estimated_diameter_max": 0.0404940262
        },
        "feet": {
            "estimated_diameter_min": 95.6180819754,
            "estimated_diameter_max": 213.8085311752
        }
    },
    "is_potentially_hazardous_asteroid": false,
    "close_approach_data": [
        {
            "close_approach_date": "2007-11-04",
            "close_approach_date_full": "2007-Nov-04 11:55",
            "epoch_date_close_approach": 1194177300000,
            "relative_velocity": {
                "kilometers_per_second": "6.2229541138",
                "kilometers_per_hour": "22402.6348096143",
                "miles_per_hour": "13920.1260571184"
            },
            "miss_distance": {
                "astronomical": "0.1410605812",
                "lunar": "54.8725660868",
                "kilometers": "21102362.488482044",
                "miles": "13112400.0202744472"
            },
            "orbiting_body": "Earth"
        }
    ],
    "orbital_data": {
        "orbit_id": "6",
        "orbit_determination_date": "2017-04-06 09:05:26",
        "first_observation_date": "2007-11-02",
        "last_observation_date": "2007-11-04",
        "data_arc_in_days": 2,
        "observations_used": 20,
        "orbit_uncertainty": "9",
        "minimum_orbit_intersection": ".141029",
        "jupiter_tisserand_invariant": "3.376",
        "epoch_osculation": "2454407.5",
        "eccentricity": ".5133694975799713",
        "semi_major_axis": "2.322838954778599",
        "inclination": "7.840369405753673",
        "ascending_node_longitude": "214.94432371",
        "orbital_period": "1293.085012049495",
        "perihelion_distance": "1.130364287604724",
        "perihelion_argument": "191.6974559514689",
        "aphelion_distance": "3.515313621952474",
        "perihelion_time": "2454413.703103487424",
        "mean_anomaly": "358.2730313671077",
        "mean_motion": ".2784039693023836",
        "equinox": "J2000",
        "orbit_class": {
            "orbit_class_type": "AMO",
            "orbit_class_description": "Near-Earth asteroid orbits similar to that of 1221 Amor",
            "orbit_class_range": "1.017 AU < q (perihelion) < 1.3 AU"
        }
    },
    "is_sentry_object": false
}